STARLINK-32955
1 63117U 25039P   26092.83335647  .00235846  00000+0  49455-2 0  9991
2 63117  42.9974 232.6761 0015872 344.4442 338.5181 15.43657529  5810
STARLINK-36887
1 67950U 26037U   26092.83335647 -.01891210  00000+0 -45683-1 0  9993
2 67950  43.0003  55.0538 0001260 269.3605 158.4147 15.43666180  5954
